{
  "type": "FeatureCollection",
  "features": [
    {
      "type": "Feature",
      "properties": {
        "norad_id": 64903,
        "name": "CO3D 1",
        "group": "resource",
        "lat": 75.53490372715599,
        "lon": -72.22463413940024,
        "alt_km": 497.6083704890234,
        "timestamp": "2025-12-27T07:26:24.879144+00:00",
        "meta_object_name": "CO3D 1",
        "meta_object_id": "2025-156E",
        "meta_epoch": "2025-12-26T23:05:33.652320",
        "meta_mean_motion": 15.20194226,
        "meta_eccentricity": 8.603e-05,
        "meta_inclination": 97.4341,
        "meta_ra_of_asc_node": 77.024,
        "meta_arg_of_pericenter": 65.5839,
        "meta_mean_anomaly": 294.5486,
        "meta_ephemeris_type": 0,
        "meta_classification_type": "U",
        "meta_norad_cat_id": 64903,
        "meta_element_set_no": 999,
        "meta_rev_at_epoch": 2336,
        "meta_bstar": 0.00066091722,
        "meta_mean_motion_dot": 0.00014264,
        "meta_mean_motion_ddot": 0,
        "tle_line1": "1 64903U 25156E   25360.96219505  .00014264  00000+0  66092-3 0  9996",
        "tle_line2": "2 64903  97.4341  77.0240 0000860  65.5839 294.5486 15.20194226 23366"
      },
      "geometry": {
        "type": "Point",
        "coordinates": [
          -72.22463413940024,
          75.53490372715599
        ]
      }
    },
    {
      "type": "Feature",
      "properties": {
        "norad_id": 66514,
        "name": "SENTINEL-6B",
        "group": "resource",
        "lat": -36.39543478549388,
        "lon": 113.03879291791046,
        "alt_km": 1339.1420454244198,
        "timestamp": "2025-12-27T07:26:24.879155+00:00",
        "meta_object_name": "SENTINEL-6B",
        "meta_object_id": "2025-264A",
        "meta_epoch": "2025-12-26T18:32:03.291648",
        "meta_mean_motion": 12.8092957,
        "meta_eccentricity": 0.00079105,
        "meta_inclination": 66.0401,
        "meta_ra_of_asc_node": 133.2883,
        "meta_arg_of_pericenter": 269.9837,
        "meta_mean_anomaly": 90.0272,
        "meta_ephemeris_type": 0,
        "meta_classification_type": "U",
        "meta_norad_cat_id": 66514,
        "meta_element_set_no": 999,
        "meta_rev_at_epoch": 508,
        "meta_bstar": 8.0357402e-05,
        "meta_mean_motion_dot": -4.3e-07,
        "meta_mean_motion_ddot": 0,
        "tle_line1": "1 66514U 25264A   25360.77226032 -.00000043  00000+0  80357-4 0  9990",
        "tle_line2": "2 66514  66.0401 133.2883 0007910 269.9837  90.0272 12.80929570  5086"
      },
      "geometry": {
        "type": "Point",
        "coordinates": [
          113.03879291791046,
          -36.39543478549388
        ]
      }
    }
  ]
}